YAOGAN-43 01G           
1 60464U 24148G   26068.44348481  .00010133  00000+0  35873-3 0  9993
2 60464  35.0006  62.0013 0007382 306.3543  53.6492 15.28332833 87004
STARLINK-35811          
1 66596U 25270J   26068.37318022  .00041822  00000+0  15204-2 0  9996
2 66596  43.0034  58.3000 0001095 287.3738  72.6994 15.27587209 17761
